NORAD_CAT_ID,OBJECT_NAME,OBJECT_TYPE,EPOCH,MEAN_MOTION,ECCENTRICITY,INCLINATION,RA_OF_ASC_NODE,ARG_OF_PERICENTER,MEAN_ANOMALY,BSTAR,MEAN_MOTION_DOT,MEAN_MOTION_DDOT,TLE_LINE0,TLE_LINE1,TLE_LINE2,SEMIMAJOR_AXIS,PERIOD,APOGEE,PERIGEE,DECAYED
51809.0,STARLINK-3607,PAYLOAD,2022-11-17 14:46:08,15.08839061,0.0002542,53.2177,2.3835,33.866,326.2494,-2.5744e-05,-6.98e-06,0.0,0 STARLINK-3607,1 51809U 22017AT  22321.61537341 -.00000698  00000-0 -25744-4 0  9996,2 51809  53.2177   2.3835 0002542  33.8660 326.2494 15.08839061 41680,6917.8830000000025,95.438,541.507,537.99,0.0
51809.0,STARLINK-3607,PAYLOAD,2022-11-18 13:01:32,15.08836692,0.000253,53.2178,358.2205,32.4298,327.6849,-4.5245e-06,-3.6000000000000007e-06,0.0,0 STARLINK-3607,1 51809U 22017AT  22322.54273527 -.00000360  00000-0 -45245-5 0  9997,2 51809  53.2178 358.2205 0002530  32.4298 327.6849 15.08836692 41826,6917.891,95.438,541.506,538.005,0.0
51809.0,STARLINK-3607,PAYLOAD,2022-11-19 04:55:23,15.08846118,0.0002697,53.2174,355.2469,32.8496,327.2663,0.00011042,1.47e-05,0.0,0 STARLINK-3607,1 51809U 22017AT  22323.20512736  .00001470  00000-0  11042-3 0  9996,2 51809  53.2174 355.2469 0002697  32.8496 327.2663 15.08846118 41924,6917.861999999999,95.437,541.592,537.861,0.0
51809.0,STARLINK-3607,PAYLOAD,2022-11-19 11:16:55,15.08837749,0.0002557,53.2179,354.0573,30.3851,329.7289,0.00014378,2.001e-05,0.0,0 STARLINK-3607,1 51809U 22017AT  22323.47009161  .00002001  00000-0  14378-3 0  9994,2 51809  53.2179 354.0573 0002557  30.3851 329.7289 15.08837749 41960,6917.887,95.438,541.521,537.9830000000002,0.0
51809.0,STARLINK-3607,PAYLOAD,2022-11-19 19:13:51,15.0884568,0.0002553,53.2178,352.5705,31.0517,329.0626,-2.3558e-05,-6.63e-06,0.0,0 STARLINK-3607,1 51809U 22017AT  22323.80128971 -.00000663  00000-0 -23558-4 0  9997,2 51809  53.2178 352.5705 0002553  31.0517 329.0626 15.08845680 42010,6917.863,95.437,541.494,537.962,0.0
51809.0,STARLINK-3607,PAYLOAD,2022-11-20 11:07:42,15.08840723,0.0002513,53.2174,349.5968,30.5301,329.5837,9.4735e-05,1.22e-05,0.0,0 STARLINK-3607,1 51809U 22017AT  22324.46369097  .00001220  00000-0  94735-4 0  9999,2 51809  53.2174 349.5968 0002513  30.5301 329.5837 15.08840723 42117,6917.878000000002,95.438,541.482,538.005,0.0
51809.0,STARLINK-3607,PAYLOAD,2022-11-20 19:04:38,15.08840419,0.0002527,53.2174,348.1099,30.8392,329.2748,7.2728e-05,8.69e-06,0.0,0 STARLINK-3607,1 51809U 22017AT  22324.79489088  .00000869  00000-0  72728-4 0  9994,2 51809  53.2174 348.1099 0002527  30.8392 329.2748 15.08840419 42160,6917.879,95.438,541.492,537.996,0.0
51809.0,STARLINK-3607,PAYLOAD,2022-11-21 07:47:43,15.08841279,0.0002556,53.2173,345.7308,33.1138,327.0013,-4.7711e-05,-1.048e-05,0.0,0 STARLINK-3607,1 51809U 22017AT  22325.32481385 -.00001048  00000-0 -47711-4 0  9992,2 51809  53.2173 345.7308 0002556  33.1138 327.0013 15.08841279 42246,6917.876,95.437,541.51,537.9730000000002,0.0
51809.0,STARLINK-3607,PAYLOAD,2022-11-22 04:27:44,15.08842255,0.0002387,53.2179,341.8644,29.4158,330.6968,0.00010076,1.316e-05,0.0,0 STARLINK-3607,1 51809U 22017AT  22326.18592737  .00001316  00000-0  10076-3 0  9990,2 51809  53.2179 341.8644 0002387  29.4158 330.6968 15.08842255 42372,6917.873000000001,95.437,541.39,538.087,0.0
51809.0,STARLINK-3607,PAYLOAD,2022-11-22 10:49:16,15.08840321,0.0002996,53.2176,340.6798,32.4834,327.6342,6.4505e-05,7.38e-06,0.0,0 STARLINK-3607,1 51809U 22017AT  22326.45089098  .00000738  00000-0  64505-4 0  9995,2 51809  53.2176 340.6798 0002996  32.4834 327.6342 15.08840321 42416,6917.879,95.438,541.817,537.672,0.0
51809.0,STARLINK-3607,PAYLOAD,2022-11-23 04:18:31,15.08835162,0.0002491,53.2186,337.4064,35.2991,324.8166,6.6987e-05,7.78e-06,0.0,0 STARLINK-3607,1 51809U 22017AT  22327.17953389  .00000778  00000-0  66987-4 0  9998,2 51809  53.2186 337.4064 0002491  35.2991 324.8166 15.08835162 42524,6917.895,95.438,541.4830000000002,538.0369999999998,0.0
51809.0,STARLINK-3607,PAYLOAD,2022-11-23 10:40:04,15.08833599,0.0002516,53.2179,336.2155,30.7476,329.3663,-6.685e-09,-2.89e-06,0.0,0 STARLINK-3607,1 51809U 22017AT  22327.44449744 -.00000289  00000-0 -66850-8 0  9995,2 51809  53.2179 336.2155 0002516  30.7476 329.3663 15.08833599 42568,6917.9,95.438,541.505,538.024,0.0
51809.0,STARLINK-3607,PAYLOAD,2022-11-24 07:20:04,15.08846841,0.0002566999999999,53.2175,332.3494,33.3542,326.7611,1.6906e-05,-1.9e-07,0.0,0 STARLINK-3607,1 51809U 22017AT  22328.30561049 -.00000019  00000-0  16906-4 0  9997,2 51809  53.2175 332.3494 0002567  33.3542 326.7611 15.08846841 42698,6917.859,95.437,541.5,537.9490000000002,0.0
51809.0,STARLINK-3607,PAYLOAD,2022-11-24 10:30:51,15.08834793,0.0002665,53.217,331.7563,32.9624,327.1534,-5.271e-05,-1.127e-05,0.0,0 STARLINK-3607,1 51809U 22017AT  22328.43810146 -.00001127  00000-0 -52710-4 0  9991,2 51809  53.2170 331.7563 0002665  32.9624 327.1534 15.08834793 42713,6917.896,95.438,541.605,537.918,0.0
51809.0,STARLINK-3607,PAYLOAD,2022-11-24 16:52:24,15.08832169,0.0003066,53.2168,330.5666,31.6201,328.4975,-4.6563e-06,-3.63e-06,0.0,0 STARLINK-3607,1 51809U 22017AT  22328.70306337 -.00000363  00000-0 -46563-5 0  9994,2 51809  53.2168 330.5666 0003066  31.6201 328.4975 15.08832169 42756,6917.904,95.438,541.89,537.648,0.0
51809.0,STARLINK-3607,PAYLOAD,2022-11-25 08:46:15,15.08836628,0.0002638,53.2171,327.5916,30.6063,329.5083,0.00013589,1.875e-05,0.0,0 STARLINK-3607,1 51809U 22017AT  22329.36545856  .00001875  00000-0  13589-3 0  9995,2 51809  53.2171 327.5916 0002638  30.6063 329.5083 15.08836628 42850,6917.891,95.438,541.581,537.931,0.0
51809.0,STARLINK-3607,PAYLOAD,2022-11-25 16:43:10,15.08844883,0.0002667,53.2172,326.1048,31.7573,328.358,0.00019221,2.772e-05,0.0,0 STARLINK-3607,1 51809U 22017AT  22329.69665415  .00002772  00000-0  19221-3 0  9991,2 51809  53.2172 326.1048 0002667  31.7573 328.3580 15.08844883 42909,6917.865,95.437,541.575,537.885,0.0
51809.0,STARLINK-3607,PAYLOAD,2022-11-26 10:12:25,15.08846415,0.0002768999999999,53.2169,322.8338,33.966,326.1509,0.00013097,1.797e-05,0.0,0 STARLINK-3607,1 51809U 22017AT  22330.42529490  .00001797  00000-0  13097-3 0  9997,2 51809  53.2169 322.8338 0002769  33.9660 326.1509 15.08846415 43017,6917.861,95.437,541.641,537.81,0.0
51809.0,STARLINK-3607,PAYLOAD,2022-11-26 16:33:57,15.08851059,0.0002765,53.217,321.6445,34.3331,325.7839,0.0002237,3.275e-05,0.0,0 STARLINK-3607,1 51809U 22017AT  22330.69025185  .00003275  00000-0  22370-3 0  9995,2 51809  53.2170 321.6445 0002765  34.3331 325.7839 15.08851059 43056,6917.847,95.437,541.624,537.799,0.0
51809.0,STARLINK-3607,PAYLOAD,2022-11-27 02:06:16,15.08850682,0.0002825,53.2169,319.861,39.6341,320.4857,0.00010152,1.328e-05,0.0,0 STARLINK-3607,1 51809U 22017AT  22331.08769004  .00001328  00000-0  10152-3 0  9996,2 51809  53.2169 319.8610 0002825  39.6341 320.4857 15.08850682 43113,6917.848000000001,95.437,541.6669999999998,537.758,0.0
51809.0,STARLINK-3607,PAYLOAD,2022-11-27 08:27:49,15.08839383,0.0002773,53.2172,318.6714,32.6311,327.4852,-1.1059e-05,-4.65e-06,0.0,0 STARLINK-3607,1 51809U 22017AT  22331.35265522 -.00000465  00000-0 -11059-4 0  9993,2 51809  53.2172 318.6714 0002773  32.6311 327.4852 15.08839383 43152,6917.882,95.438,541.6659999999998,537.8290000000002,0.0
51809.0,STARLINK-3607,PAYLOAD,2022-11-27 16:24:45,15.08833285,0.0002716,53.2167,317.1836,30.0421,330.0726,-0.00012629,-2.298e-05,0.0,0 STARLINK-3607,1 51809U 22017AT  22331.68385818 -.00002298  00000-0 -12629-3 0  9999,2 51809  53.2167 317.1836 0002716  30.0421 330.0726 15.08833285 43207,6917.901,95.438,541.645,537.887,0.0
51809.0,STARLINK-3607,PAYLOAD,2022-11-28 09:53:59,15.08840717,0.0002887,53.2174,313.9133,29.2144,330.9009,7.6438e-05,9.28e-06,0.0,0 STARLINK-3607,1 51809U 22017AT  22332.41249763  .00000928  00000-0  76438-4 0  9994,2 51809  53.2174 313.9133 0002887  29.2144 330.9009 15.08840717 43313,6917.878000000002,95.438,541.74,537.746,0.0
51809.0,STARLINK-3607,PAYLOAD,2022-11-28 16:15:32,15.08836106,0.0002806,53.2171,312.7238,32.552,327.5645,-3.7303e-05,-8.82e-06,0.0,0 STARLINK-3607,1 51809U 22017AT  22332.67746382 -.00000882  00000-0 -37303-4 0  9990,2 51809  53.2171 312.7238 0002806  32.5520 327.5645 15.08836106 43358,6917.892,95.438,541.698,537.816,0.0
51809.0,STARLINK-3607,PAYLOAD,2022-11-29 04:58:37,15.08847624,0.0002882,53.2167,310.3444,35.2051,324.9131,1.6622e-05,-2.4e-07,0.0,0 STARLINK-3607,1 51809U 22017AT  22333.20737504 -.00000024  00000-0  16622-4 0  9994,2 51809  53.2167 310.3444 0002882  35.2051 324.9131 15.08847624 43436,6917.857,95.437,541.716,537.7280000000002,0.0
51809.0,STARLINK-3607,PAYLOAD,2022-11-29 08:09:23,15.08858101,0.0002957,53.2167,309.7499,41.6178,318.5038,-0.00012517,-2.281e-05,0.0,0 STARLINK-3607,1 51809U 22017AT  22333.33985073 -.00002281  00000-0 -12517-3 0  9990,2 51809  53.2167 309.7499 0002957  41.6178 318.5038 15.08858101 43451,6917.825,95.436,541.736,537.644,0.0
51809.0,STARLINK-3607,PAYLOAD,2022-11-30 04:49:24,15.08835057,0.0002819,53.2166,305.8838,34.1551,325.9623,0.00013074,1.793e-05,0.0,0 STARLINK-3607,1 51809U 22017AT  22334.20098197  .00001793  00000-0  13074-3 0  9993,2 51809  53.2166 305.8838 0002819  34.1551 325.9623 15.08835057 43584,6917.895,95.438,541.711,537.81,0.0
51809.0,STARLINK-3607,PAYLOAD,2022-11-30 08:00:11,15.08831489,0.0002768999999999,53.2175,305.289,28.3591,331.7551,-2.3439e-05,-6.61e-06,0.0,0 STARLINK-3607,1 51809U 22017AT  22334.33346720 -.00000661  00000-0 -23439-4 0  9997,2 51809  53.2175 305.2890 0002769  28.3591 331.7551 15.08831489 43602,6917.906,95.438,541.687,537.856,0.0
51809.0,STARLINK-3607,PAYLOAD,2022-12-01 07:50:57,15.08846729,0.0002744,53.2176,300.8286,32.828,327.2882,0.00010787,1.429e-05,0.0,0 STARLINK-3607,1 51809U 22017AT  22335.32705723  .00001429  00000-0  10787-3 0  9991,2 51809  53.2176 300.8286 0002744  32.8280 327.2882 15.08846729 43757,6917.86,95.437,541.623,537.827,0.0
